ONEWEB-0229             
1 48779U 21045N   24350.76447521 -.00000014  00000+0 -71945-4 0  9993
2 48779  87.9066   8.3826 0001704  86.9341 273.1984 13.15549885172309
ONEWEB-0228             
1 48780U 21045P   24350.03639197  .00000167  00000+0  41002-3 0  9994
2 48780  87.9063   8.5064 0001671  88.7380 271.3941 13.15548698173259
ONEWEB-0232             
1 48781U 21045Q   24350.77239788 -.00000017  00000+0 -80370-4 0  9996
2 48781  87.9057   8.3654 0001726  91.2784 268.8545 13.15548603172542
ONEWEB-0231             
1 48782U 21045R   24350.75021938  .00000148  00000+0  35912-3 0  9995
2 48782  87.9074   8.4274 0001502  85.9066 274.2236 13.15549297172230
ONEWEB-0234             
1 48783U 21045S   24350.77002203  .00000011  00000+0 -51551-5 0  9991
2 48783  87.9064   8.3685 0002426 123.0315 237.1049 13.15550137172372
ONEWEB-0238             
1 48784U 21045T   24350.49589004  .00000137  00000+0  32866-3 0  9994
2 48784  87.9061   8.4395 0001838  96.8430 263.2910 13.15547037173362
ONEWEB-0240             
1 48785U 21045U   24350.80963912  .00000168  00000+0  41156-3 0  9990
2 48785  87.9060   8.3436 0001280  96.5675 263.5601 13.15549687172302
ONEWEB-0246             
1 48786U 21045V   24350.80408807  .00000078  00000+0  17417-3 0  9991
2 48786  87.9061   8.3519 0001712  87.0923 273.0403 13.15549373172170
